{
  "name": "SATGUS",
  "line1": "1 62713U 25009DJ  26069.17371340  .00010951  00000+0  88761-3 0  9992",
  "line2": "2 62713  97.7098 151.4306 0005669  94.9784 265.2087 14.99853196 62719",
  "fetched_at": "2026-03-11T00:22:01.465643+00:00"
}